{
  "type": "Feature",
  "properties": {},
  "geometry": {
    "type": "Polygon",
    "coordinates": [
      [
        [ -77.0126574, 39.0203292 ],
        [ -77.0121456, 39.0209517 ],
        [ -77.011133, 39.0235365 ],
        [ -77.010699, 39.0260954 ],
        [ -77.0099216, 39.0273838 ],
        [ -77.007947, 39.0288009 ],
        [ -77.0047687, 39.0294875 ],
        [ -77.0022111, 39.0275737 ],
        [ -76.9996346, 39.0270185 ],
        [ -76.9975283, 39.0234537 ],
        [ -76.9979985, 39.0214374 ],
        [ -76.9971146, 39.0196549 ],
        [ -76.9986379, 39.0166742 ],
        [ -77.0021116, 39.0157357 ],
        [ -77.0033022, 39.0158308 ],
        [ -77.004593, 39.0161767 ],
        [ -77.0058171, 39.016436 ],
        [ -77.0069187, 39.0179231 ],
        [ -77.0077978, 39.0187271 ],
        [ -77.009033, 39.0191248 ],
        [ -77.01078, 39.019462 ],
        [ -77.0118816, 39.0197992 ],
        [ -77.0126574, 39.0203292 ]
      ]
    ]
  }
}
