{
  "type": "Feature",
  "properties": {},
  "geometry": {
    "type": "Polygon",
    "coordinates": [
      [
        [-77.01319, 39.0197019],
        [-77.0122284, 39.0191299],
        [-77.0089832, 39.0189665],
        [-77.0069549, 39.0177175],
        [-77.0064591, 39.0169821],
        [-77.0075859, 39.0160015],
        [-77.0106359, 39.0167136],
        [-77.0140314, 39.0164334],
        [-77.0152484, 39.017519],
        [-77.01319, 39.0197019]
      ],
      [
        [-77.011378, 39.0180778],
        [-77.0110567, 39.0180778],
        [-77.0110683, 39.0178644],
        [-77.0113897, 39.0178554],
        [-77.011378, 39.0180778]
      ]
    ]
  }
}
