{
  "type": "Feature",
  "properties": {},
  "geometry": {
    "type": "Polygon",
    "coordinates": [
      [
        [ -77.0238504, 39.033906 ],
        [ -77.0225572, 39.0344488 ],
        [ -77.0189695, 39.0353115 ],
        [ -77.0189487, 39.0357814 ],
        [ -77.0195849, 39.0363809 ],
        [ -77.020221, 39.0372719 ],
        [ -77.0202461, 39.0374874 ],
        [ -77.020112, 39.0377976 ],
        [ -77.0198554, 39.0381033 ],
        [ -77.0183365, 39.0386943 ],
        [ -77.0163949, 39.0393737 ],
        [ -77.0159313, 39.0394801 ],
        [ -77.0146273, 39.039469 ],
        [ -77.014102, 39.0393544 ],
        [ -77.0131252, 39.0389464 ],
        [ -77.0127534, 39.0385269 ],
        [ -77.0122959, 39.0376949 ],
        [ -77.0122037, 39.0372861 ],
        [ -77.0112744, 39.0369252 ],
        [ -77.0104306, 39.0363984 ],
        [ -77.0103345, 39.0358632 ],
        [ -77.0105908, 39.0355811 ],
        [ -77.0121076, 39.0353986 ],
        [ -77.012161, 39.0352658 ],
        [ -77.011926, 39.0350999 ],
        [ -77.0117337, 39.0346436 ],
        [ -77.0117777, 39.0337554 ],
        [ -77.0123124, 39.0325759 ],
        [ -77.0107326, 39.0319748 ],
        [ -77.0101898, 39.0316788 ],
        [ -77.0088131, 39.0312879 ],
        [ -77.0074363, 39.0300788 ],
        [ -77.007616, 39.0296459 ],
        [ -77.0079407, 39.0291157 ],
        [ -77.0097179, 39.0278714 ],
        [ -77.0103469, 39.0272805 ],
        [ -77.010954, 39.0263658 ],
        [ -77.0112459, 39.0249495 ],
        [ -77.0113717, 39.0235902 ],
        [ -77.0121207, 39.0216362 ],
        [ -77.0123313, 39.0210708 ],
        [ -77.0125643, 39.020734 ],
        [ -77.0128102, 39.0204601 ],
        [ -77.0142498, 39.0213624 ],
        [ -77.01611, 39.0225764 ],
        [ -77.0176714, 39.0240362 ],
        [ -77.018753, 39.0246503 ],
        [ -77.0197193, 39.0256278 ],
        [ -77.0200485, 39.0260961 ],
        [ -77.0201853, 39.0266175 ],
        [ -77.0203073, 39.0282846 ],
        [ -77.0204689, 39.0288879 ],
        [ -77.0209696, 39.0297914 ],
        [ -77.0224514, 39.0319029 ],
        [ -77.0238504, 39.033906 ]
      ]
    ]
  }
}
