{
  "type": "Feature",
  "properties": {},
  "geometry": {
    "type": "Polygon",
    "coordinates": [
      [
        [-77.0498469, 39.0055023],
        [-77.0472544, 39.0075783],
        [-77.0450729, 39.0090892],
        [-77.0402514, 39.008561],
        [-77.0398403, 39.00748],
        [-77.0405201, 39.0062885],
        [-77.0404252, 39.0056006],
        [-77.0402197, 39.0052566],
        [-77.0402672, 39.0018415],
        [-77.0425277, 39.0017555],
        [-77.0432707, 39.0013132],
        [-77.0459265, 39.0025786],
        [-77.0471437, 39.0032419],
        [-77.0480922, 39.0039053],
        [-77.0498311, 39.0055023],
        [-77.0498469, 39.0055023]
      ]
    ]
  }
}
