{
  "type": "Feature",
  "properties": {},
  "geometry": {
    "type": "Polygon",
    "coordinates": [
      [
        [ -77.0320547, 38.9994831 ],
        [ -77.0344794, 38.9979936 ],
        [ -77.0355286, 38.9973022 ],
        [ -77.0367415, 38.998115 ],
        [ -77.0382244, 38.998931 ],
        [ -77.0397148, 38.9996531 ],
        [ -77.0400124, 39.0019342 ],
        [ -77.0399891, 39.0055235 ],
        [ -77.0399207, 39.005736 ],
        [ -77.0396997, 39.0059077 ],
        [ -77.0395314, 39.0059649 ],
        [ -77.038987, 39.0060998 ],
        [ -77.0386924, 39.0057544 ],
        [ -77.0383952, 39.0054274 ],
        [ -77.0320547, 38.9994831 ]
      ]
    ]
  }
}
