{
  "type": "Feature",
  "properties": {},
  "geometry": {
    "type": "Polygon",
    "coordinates": [
      [
        [ -77.0250269, 39.0016168 ],
        [ -77.0243395, 39.0028618 ],
        [ -77.0234027, 39.0044557 ],
        [ -77.0226044, 39.0054809 ],
        [ -77.0219115, 39.0062176 ],
        [ -77.0209635, 39.0070447 ],
        [ -77.0200766, 39.0076563 ],
        [ -77.0197883, 39.007721 ],
        [ -77.0183137, 39.0086428 ],
        [ -77.0180366, 39.0085739 ],
        [ -77.0167394, 39.0084705 ],
        [ -77.0158801, 39.0086212 ],
        [ -77.013696, 39.0091898 ],
        [ -77.013363, 39.0092537 ],
        [ -77.0127517, 39.0092996 ],
        [ -77.0127871, 39.0085629 ],
        [ -77.0129023, 39.0080718 ],
        [ -77.0130234, 39.0078446 ],
        [ -77.0137174, 39.0070506 ],
        [ -77.0138799, 39.0070643 ],
        [ -77.0148603, 39.0056094 ],
        [ -77.0145178, 39.0051527 ],
        [ -77.0143228, 39.00507 ],
        [ -77.0153654, 39.0033855 ],
        [ -77.0143701, 39.0028599 ],
        [ -77.0136835, 39.0021758 ],
        [ -77.0136669, 39.0020336 ],
        [ -77.0140272, 39.0018656 ],
        [ -77.0142434, 39.0016976 ],
        [ -77.0160506, 39.0012496 ],
        [ -77.0164053, 39.0009868 ],
        [ -77.0167823, 39.0004396 ],
        [ -77.0170927, 39.0002027 ],
        [ -77.0175806, 39.000095 ],
        [ -77.0175085, 38.9986819 ],
        [ -77.0172646, 38.9979495 ],
        [ -77.0189055, 38.9972042 ],
        [ -77.0198257, 38.996782 ],
        [ -77.0202913, 38.9964632 ],
        [ -77.0204355, 38.996265 ],
        [ -77.0240831, 38.9944985 ],
        [ -77.024194, 38.9949595 ],
        [ -77.0243713, 38.9953947 ],
        [ -77.0234622, 38.9959074 ],
        [ -77.021777, 38.9971783 ],
        [ -77.0239112, 38.9988241 ],
        [ -77.0243381, 38.9990266 ],
        [ -77.0241163, 39.0001424 ],
        [ -77.0238558, 39.0006378 ],
        [ -77.023368, 39.001228 ],
        [ -77.0238392, 39.001465 ],
        [ -77.0245044, 39.0015856 ],
        [ -77.0250269, 39.0016168 ]
      ]
    ]
  }
}
