{
  "type": "Feature",
  "properties": {},
  "geometry": {
    "type": "Polygon",
    "coordinates": [
      [
        [ -77.0252543, 39.0117142 ],
        [ -77.0238347, 39.0166476 ],
        [ -77.0199648, 39.0159752 ],
        [ -77.018979, 39.0157429 ],
        [ -77.0179669, 39.0153547 ],
        [ -77.0174882, 39.0150676 ],
        [ -77.0171775, 39.0147837 ],
        [ -77.0168919, 39.0140104 ],
        [ -77.0168247, 39.0132599 ],
        [ -77.0168835, 39.0127281 ],
        [ -77.0180358, 39.0093462 ],
        [ -77.0183276, 39.0089833 ],
        [ -77.0196368, 39.0080632 ],
        [ -77.0201121, 39.0077652 ],
        [ -77.0207291, 39.008115 ],
        [ -77.021096, 39.0084455 ],
        [ -77.0212331, 39.0086733 ],
        [ -77.0213134, 39.0089124 ],
        [ -77.021434, 39.0093147 ],
        [ -77.0216688, 39.0096642 ],
        [ -77.0221175, 39.0099564 ],
        [ -77.0228167, 39.0102513 ],
        [ -77.023436, 39.0104298 ],
        [ -77.0239005, 39.0104648 ],
        [ -77.0245448, 39.011043 ],
        [ -77.0249693, 39.0113341 ],
        [ -77.0252543, 39.0117142 ]
      ]
    ]
  }
}
