{
  "type": "Feature",
  "properties": {},
  "geometry": {
    "type": "Polygon",
    "coordinates": [
      [
        [ -77.046172, 39.00267 ],
        [ -77.046172, 39.00269 ],
        [ -77.047722, 38.999593 ],
        [ -77.049693, 38.999361 ],
        [ -77.048485, 38.997593 ],
        [ -77.048066, 38.997516 ],
        [ -77.047499, 38.997189 ],
        [ -77.047646, 38.996439 ],
        [ -77.047202, 38.995555 ],
        [ -77.047276, 38.995228 ],
        [ -77.046857, 38.995209 ],
        [ -77.045723, 38.994998 ],
        [ -77.045132, 38.994883 ],
        [ -77.044023, 38.994672 ],
        [ -77.043382, 38.994922 ],
        [ -77.042397, 38.995403 ],
        [ -77.042545, 38.995518 ],
        [ -77.043284, 38.995864 ],
        [ -77.04321, 38.99621 ],
        [ -77.042989, 38.997595 ],
        [ -77.043115, 39.000999 ],
        [ -77.043435, 39.001364 ],
        [ -77.046172, 39.00267 ]
      ]
    ]
  }
}
