{
  "type": "Feature",
  "properties": {},
  "geometry": {
    "type": "Polygon",
    "coordinates": [
      [
        [ -77.0229753, 39.0052456 ],
        [ -77.0235208, 39.0044515 ],
        [ -77.0250189, 39.0018006 ],
        [ -77.026179, 38.9990482 ],
        [ -77.0297054, 39.0004752 ],
        [ -77.0302048, 39.0005588 ],
        [ -77.030781, 39.0004811 ],
        [ -77.031219, 39.0002304 ],
        [ -77.0315724, 38.9997766 ],
        [ -77.0318182, 38.9996273 ],
        [ -77.0378586, 39.0051761 ],
        [ -77.0382133, 39.0055049 ],
        [ -77.038849, 39.0062592 ],
        [ -77.0395302, 39.0072384 ],
        [ -77.0398821, 39.0079574 ],
        [ -77.0401659, 39.0086278 ],
        [ -77.0398115, 39.0087022 ],
        [ -77.0397475, 39.0087485 ],
        [ -77.0388028, 39.0089509 ],
        [ -77.0383393, 39.008999 ],
        [ -77.0381708, 39.0089666 ],
        [ -77.0379178, 39.0088596 ],
        [ -77.0378358, 39.0088011 ],
        [ -77.037408, 39.009025 ],
        [ -77.0338683, 39.0082944 ],
        [ -77.0331306, 39.008297 ],
        [ -77.0315938, 39.0087144 ],
        [ -77.0313457, 39.0087778 ],
        [ -77.0302475, 39.0087461 ],
        [ -77.0297824, 39.0086093 ],
        [ -77.0291763, 39.0083706 ],
        [ -77.0285562, 39.0090413 ],
        [ -77.0276909, 39.008687 ],
        [ -77.0274796, 39.0089744 ],
        [ -77.0271842, 39.0086114 ],
        [ -77.0272056, 39.008324 ],
        [ -77.0274252, 39.0078545 ],
        [ -77.0274528, 39.0077327 ],
        [ -77.0265845, 39.0073735 ],
        [ -77.026044, 39.007081 ],
        [ -77.0253111, 39.0067096 ],
        [ -77.0247595, 39.0064772 ],
        [ -77.0230907, 39.0057316 ],
        [ -77.0229753, 39.0052456 ]
      ]
    ]
  }
}
