{
  "type": "Feature",
  "properties": {},
  "geometry": {
    "type": "Polygon",
    "coordinates": [
      [
        [ -77.053762, 38.997901 ],
        [ -77.053715, 38.997975 ],
        [ -77.053646, 38.998022 ],
        [ -77.053599, 38.998069 ],
        [ -77.05353, 38.998129 ],
        [ -77.053462, 38.998187 ],
        [ -77.053428, 38.998221 ],
        [ -77.053368, 38.998261 ],
        [ -77.053308, 38.9983 ],
        [ -77.053247, 38.998339 ],
        [ -77.053187, 38.998378 ],
        [ -77.053129, 38.998416 ],
        [ -77.052834, 38.998593 ],
        [ -77.052491, 38.998802 ],
        [ -77.051295, 38.999488 ],
        [ -77.050029, 39.000213 ],
        [ -77.0498, 38.999306 ],
        [ -77.047667, 38.999626 ],
        [ -77.046166, 39.002659 ],
        [ -77.046624, 39.002868 ],
        [ -77.047112, 39.00314 ],
        [ -77.047274, 39.003231 ],
        [ -77.047376, 39.003309 ],
        [ -77.048858, 39.004433 ],
        [ -77.048942, 39.004497 ],
        [ -77.049495, 39.005102 ],
        [ -77.049843, 39.005482 ],
        [ -77.049911, 39.005537 ],
        [ -77.052108, 39.003583 ],
        [ -77.053333, 39.00207 ],
        [ -77.053866, 39.001447 ],
        [ -77.054479, 39.00074 ],
        [ -77.055505, 38.999594 ],
        [ -77.055885, 38.998898 ],
        [ -77.056965, 38.997703 ],
        [ -77.057359, 38.997267 ],
        [ -77.057482, 38.99713 ],
        [ -77.055207, 38.995816 ],
        [ -77.055155, 38.995787 ],
        [ -77.054471, 38.996613 ],
        [ -77.054276, 38.996836 ],
        [ -77.054178, 38.997104 ],
        [ -77.054066, 38.997345 ],
        [ -77.054042, 38.997403 ],
        [ -77.054018, 38.997461 ],
        [ -77.053993, 38.997519 ],
        [ -77.053969, 38.997577 ],
        [ -77.053945, 38.997636 ],
        [ -77.053921, 38.997694 ],
        [ -77.053896, 38.997752 ],
        [ -77.053831, 38.997814 ],
        [ -77.053762, 38.997901 ]
      ]
    ]
  }
}
