{
  "type": "Feature",
  "properties": {},
  "geometry": {
    "type": "Polygon",
    "coordinates": [
      [
        [ -77.049843, 39.005482 ],
        [ -77.048876, 39.006295 ],
        [ -77.047285, 39.00759 ],
        [ -77.046094, 39.008405 ],
        [ -77.045438, 39.008832 ],
        [ -77.04505, 39.009135 ],
        [ -77.044818, 39.009323 ],
        [ -77.044445, 39.009598 ],
        [ -77.044103, 39.009745 ],
        [ -77.044406, 39.010444 ],
        [ -77.044092, 39.010909 ],
        [ -77.043622, 39.011738 ],
        [ -77.043204, 39.012494 ],
        [ -77.043647, 39.012773 ],
        [ -77.044007, 39.013087 ],
        [ -77.044417, 39.013318 ],
        [ -77.044927, 39.013327 ],
        [ -77.045639, 39.013346 ],
        [ -77.047163, 39.013396 ],
        [ -77.047869, 39.013417 ],
        [ -77.048978, 39.013452 ],
        [ -77.049488, 39.013469 ],
        [ -77.050038, 39.013485 ],
        [ -77.050371, 39.01349 ],
        [ -77.050723, 39.013497 ],
        [ -77.051114, 39.013516 ],
        [ -77.051505, 39.013525 ],
        [ -77.052033, 39.013527 ],
        [ -77.052458, 39.013546 ],
        [ -77.05298, 39.01356 ],
        [ -77.053429, 39.013586 ],
        [ -77.053976, 39.013614 ],
        [ -77.054256, 39.013637 ],
        [ -77.053536, 39.013169 ],
        [ -77.053495, 39.013059 ],
        [ -77.05331, 39.012564 ],
        [ -77.052991, 39.011861 ],
        [ -77.052801, 39.011191 ],
        [ -77.052376, 39.009735 ],
        [ -77.052275, 39.00959 ],
        [ -77.052145, 39.009138 ],
        [ -77.052123, 39.009065 ],
        [ -77.052093, 39.008958 ],
        [ -77.051795, 39.008496 ],
        [ -77.051583, 39.008044 ],
        [ -77.051413, 39.00778 ],
        [ -77.05122, 39.007605 ],
        [ -77.051053, 39.007453 ],
        [ -77.050893, 39.007068 ],
        [ -77.050779, 39.00688 ],
        [ -77.0505, 39.006421 ],
        [ -77.049897, 39.005552 ],
        [ -77.049843, 39.005482 ]
      ]
    ]
  }
}
