{
  "type": "Feature",
  "properties": {},
  "geometry": {
    "type": "Polygon",
    "coordinates": [
      [
        [ -77.0202957, 39.0260198 ],
        [ -77.0200516, 39.0256261 ],
        [ -77.0190822, 39.0246167 ],
        [ -77.0186845, 39.0243324 ],
        [ -77.0182192, 39.0240995 ],
        [ -77.0178062, 39.0238011 ],
        [ -77.0162074, 39.0223878 ],
        [ -77.0149968, 39.0215687 ],
        [ -77.014601, 39.0211486 ],
        [ -77.0142805, 39.0205502 ],
        [ -77.0140047, 39.0202599 ],
        [ -77.0136615, 39.020016 ],
        [ -77.0133927, 39.0198072 ],
        [ -77.015545, 39.0174961 ],
        [ -77.0160013, 39.0172266 ],
        [ -77.0171135, 39.0171306 ],
        [ -77.0174597, 39.0170209 ],
        [ -77.0177923, 39.0168039 ],
        [ -77.0181568, 39.0165161 ],
        [ -77.0185664, 39.0163194 ],
        [ -77.0191413, 39.0162196 ],
        [ -77.0214142, 39.0165241 ],
        [ -77.0238147, 39.0169499 ],
        [ -77.0257226, 39.0170875 ],
        [ -77.0279725, 39.0168666 ],
        [ -77.0297279, 39.0164088 ],
        [ -77.031353, 39.0156452 ],
        [ -77.0317701, 39.0162242 ],
        [ -77.0319603, 39.0164131 ],
        [ -77.0320604, 39.0166993 ],
        [ -77.0322293, 39.0190741 ],
        [ -77.0323179, 39.0198607 ],
        [ -77.0322302, 39.0203183 ],
        [ -77.0319217, 39.0207132 ],
        [ -77.03148, 39.0210101 ],
        [ -77.0307226, 39.0214627 ],
        [ -77.0300157, 39.0219078 ],
        [ -77.0298737, 39.0220484 ],
        [ -77.0297411, 39.0222869 ],
        [ -77.0297429, 39.0225535 ],
        [ -77.0300242, 39.0232444 ],
        [ -77.030014, 39.0235713 ],
        [ -77.0298814, 39.0238289 ],
        [ -77.0291096, 39.0235293 ],
        [ -77.0285671, 39.0234172 ],
        [ -77.0281079, 39.0233541 ],
        [ -77.0257911, 39.0231806 ],
        [ -77.025251, 39.0232 ],
        [ -77.024299, 39.0233882 ],
        [ -77.0235278, 39.0237429 ],
        [ -77.0218866, 39.0249116 ],
        [ -77.0202957, 39.0260198 ]
      ]
    ]
  }
}
