{
  "type": "Feature",
  "properties": {},
  "geometry": {
    "type": "Polygon",
    "coordinates": [
      [
        [ -77.0402024, 39.008773 ],
        [ -77.0413789, 39.0120148 ],
        [ -77.0411284, 39.0123957 ],
        [ -77.040551, 39.0126411 ],
        [ -77.0401807, 39.0130643 ],
        [ -77.0388844, 39.0131574 ],
        [ -77.0363463, 39.0131067 ],
        [ -77.0351372, 39.0126919 ],
        [ -77.0350719, 39.0116678 ],
        [ -77.0345381, 39.0115408 ],
        [ -77.0341678, 39.0118117 ],
        [ -77.0339608, 39.0123534 ],
        [ -77.031804, 39.0127766 ],
        [ -77.0305404, 39.0111007 ],
        [ -77.0291679, 39.0105336 ],
        [ -77.0290807, 39.0102289 ],
        [ -77.0286995, 39.0100258 ],
        [ -77.028449, 39.0103728 ],
        [ -77.0277518, 39.0104913 ],
        [ -77.0270655, 39.0103982 ],
        [ -77.0267388, 39.0099326 ],
        [ -77.0267823, 39.0094586 ],
        [ -77.0266298, 39.0091285 ],
        [ -77.0253118, 39.0092216 ],
        [ -77.0236669, 39.0097803 ],
        [ -77.0225232, 39.0088323 ],
        [ -77.0223598, 39.0077065 ],
        [ -77.0214666, 39.0068347 ],
        [ -77.0228935, 39.005328 ],
        [ -77.0290154, 39.0079943 ],
        [ -77.0300175, 39.0083752 ],
        [ -77.03078, 39.0084599 ],
        [ -77.0315208, 39.0083752 ],
        [ -77.0337865, 39.0078081 ],
        [ -77.0342331, 39.0077996 ],
        [ -77.036989, 39.0084006 ],
        [ -77.0373703, 39.0085784 ],
        [ -77.0380674, 39.009027 ],
        [ -77.0386339, 39.0090778 ],
        [ -77.0402024, 39.008773 ]
      ]
    ]
  }
}
